{
  "type": "FeatureCollection",
  "features": [
    {
      "type": "Feature",
      "properties": {
        "norad_id": 40115,
        "name": "WORLDVIEW-3 (WV-3)",
        "group": "resource",
        "lat": 72.7594256092174,
        "lon": 31.2319333724322,
        "alt_km": 606.3690977104843,
        "timestamp": "2025-12-11T08:58:26.771335+00:00",
        "meta_object_name": "WORLDVIEW-3 (WV-3)",
        "meta_object_id": "2014-048A",
        "meta_epoch": "2025-12-11T05:24:21.657024",
        "meta_mean_motion": 14.85505154,
        "meta_eccentricity": 0.0004633,
        "meta_inclination": 97.8617,
        "meta_ra_of_asc_node": 57.5245,
        "meta_arg_of_pericenter": 189.864,
        "meta_mean_anomaly": 170.2485,
        "meta_ephemeris_type": 0,
        "meta_classification_type": "U",
        "meta_norad_cat_id": 40115,
        "meta_element_set_no": 999,
        "meta_rev_at_epoch": 61401,
        "meta_bstar": 0.00020746,
        "meta_mean_motion_dot": 1.738e-05,
        "meta_mean_motion_ddot": 0,
        "tle_line1": "1 40115U 14048A   25345.22525066  .00001738  00000+0  20746-3 0  9995",
        "tle_line2": "2 40115  97.8617  57.5245 0004633 189.8640 170.2485 14.85505154614018"
      },
      "geometry": {
        "type": "Point",
        "coordinates": [
          31.2319333724322,
          72.7594256092174
        ]
      }
    },
    {
      "type": "Feature",
      "properties": {
        "norad_id": 40118,
        "name": "GAOFEN-2",
        "group": "resource",
        "lat": -79.88653011616302,
        "lon": 96.93697482020758,
        "alt_km": 640.3377854466689,
        "timestamp": "2025-12-11T08:58:26.771346+00:00",
        "meta_object_name": "GAOFEN-2",
        "meta_object_id": "2014-049A",
        "meta_epoch": "2025-12-11T04:29:13.437312",
        "meta_mean_motion": 14.80602867,
        "meta_eccentricity": 0.0008496,
        "meta_inclination": 98.0382,
        "meta_ra_of_asc_node": 44.3521,
        "meta_arg_of_pericenter": 117.3662,
        "meta_mean_anomaly": 242.8415,
        "meta_ephemeris_type": 0,
        "meta_classification_type": "U",
        "meta_norad_cat_id": 40118,
        "meta_element_set_no": 999,
        "meta_rev_at_epoch": 61141,
        "meta_bstar": 0.00014057,
        "meta_mean_motion_dot": 1.025e-05,
        "meta_mean_motion_ddot": 0,
        "tle_line1": "1 40118U 14049A   25345.18696108  .00001025  00000+0  14057-3 0  9997",
        "tle_line2": "2 40118  98.0382  44.3521 0008496 117.3662 242.8415 14.80602867611419"
      },
      "geometry": {
        "type": "Point",
        "coordinates": [
          96.93697482020758,
          -79.88653011616302
        ]
      }
    },
    {
      "type": "Feature",
      "properties": {
        "norad_id": 40143,
        "name": "YAOGAN-21",
        "group": "resource",
        "lat": 27.906726543709567,
        "lon": 24.91974036958286,
        "alt_km": 487.30026009653557,
        "timestamp": "2025-12-11T08:58:26.771357+00:00",
        "meta_object_name": "YAOGAN-21",
        "meta_object_id": "2014-053A",
        "meta_epoch": "2025-12-11T04:07:21.431712",
        "meta_mean_motion": 15.23647736,
        "meta_eccentricity": 0.0009842,
        "meta_inclination": 97.1757,
        "meta_ra_of_asc_node": 28.5523,
        "meta_arg_of_pericenter": 46.8703,
        "meta_mean_anomaly": 313.3356,
        "meta_ephemeris_type": 0,
        "meta_classification_type": "U",
        "meta_norad_cat_id": 40143,
        "meta_element_set_no": 999,
        "meta_rev_at_epoch": 62630,
        "meta_bstar": 0.00033325,
        "meta_mean_motion_dot": 7.933e-05,
        "meta_mean_motion_ddot": 0,
        "tle_line1": "1 40143U 14053A   25345.17177583  .00007933  00000+0  33325-3 0  9993",
        "tle_line2": "2 40143  97.1757  28.5523 0009842  46.8703 313.3356 15.23647736626301"
      },
      "geometry": {
        "type": "Point",
        "coordinates": [
          24.91974036958286,
          27.906726543709567
        ]
      }
    },
    {
      "type": "Feature",
      "properties": {
        "norad_id": 40275,
        "name": "YAOGAN-22",
        "group": "resource",
        "lat": 14.734088245858436,
        "lon": -48.364686133942,
        "alt_km": 1202.2246236826195,
        "timestamp": "2025-12-11T08:58:26.771367+00:00",
        "meta_object_name": "YAOGAN-22",
        "meta_object_id": "2014-063A",
        "meta_epoch": "2025-12-11T02:39:44.143776",
        "meta_mean_motion": 13.15522591,
        "meta_eccentricity": 0.0005946,
        "meta_inclination": 100.742,
        "meta_ra_of_asc_node": 128.5074,
        "meta_arg_of_pericenter": 252.2554,
        "meta_mean_anomaly": 107.7909,
        "meta_ephemeris_type": 0,
        "meta_classification_type": "U",
        "meta_norad_cat_id": 40275,
        "meta_element_set_no": 999,
        "meta_rev_at_epoch": 53508,
        "meta_bstar": 7.3202e-05,
        "meta_mean_motion_dot": -1.9e-07,
        "meta_mean_motion_ddot": 0,
        "tle_line1": "1 40275U 14063A   25345.11092759 -.00000019  00000+0  73202-4 0  9993",
        "tle_line2": "2 40275 100.7420 128.5074 0005946 252.2554 107.7909 13.15522591535088"
      },
      "geometry": {
        "type": "Point",
        "coordinates": [
          -48.364686133942,
          14.734088245858436
        ]
      }
    },
    {
      "type": "Feature",
      "properties": {
        "norad_id": 40298,
        "name": "ASNARO",
        "group": "resource",
        "lat": 80.08345088342587,
        "lon": -70.92911840263439,
        "alt_km": 496.9227536294029,
        "timestamp": "2025-12-11T08:58:26.771378+00:00",
        "meta_object_name": "ASNARO",
        "meta_object_id": "2014-070A",
        "meta_epoch": "2025-12-11T05:23:21.738624",
        "meta_mean_motion": 15.19442368,
        "meta_eccentricity": 0.0005353,
        "meta_inclination": 97.3648,
        "meta_ra_of_asc_node": 61.2075,
        "meta_arg_of_pericenter": 126.6394,
        "meta_mean_anomaly": 233.5334,
        "meta_ephemeris_type": 0,
        "meta_classification_type": "U",
        "meta_norad_cat_id": 40298,
        "meta_element_set_no": 999,
        "meta_rev_at_epoch": 61546,
        "meta_bstar": 0.00079251,
        "meta_mean_motion_dot": 0.0001676,
        "meta_mean_motion_ddot": 0,
        "tle_line1": "1 40298U 14070A   25345.22455716  .00016760  00000+0  79251-3 0  9992",
        "tle_line2": "2 40298  97.3648  61.2075 0005353 126.6394 233.5334 15.19442368615468"
      },
      "geometry": {
        "type": "Point",
        "coordinates": [
          -70.92911840263439,
          80.08345088342587
        ]
      }
    },
    {
      "type": "Feature",
      "properties": {
        "norad_id": 40310,
        "name": "YAOGAN-24",
        "group": "resource",
        "lat": -75.80497060661354,
        "lon": 150.834485132333,
        "alt_km": 656.6057074583141,
        "timestamp": "2025-12-11T08:58:26.771389+00:00",
        "meta_object_name": "YAOGAN-24",
        "meta_object_id": "2014-072A",
        "meta_epoch": "2025-12-11T04:26:56.350752",
        "meta_mean_motion": 14.76170119,
        "meta_eccentricity": 0.0014678,
        "meta_inclination": 98.1224,
        "meta_ra_of_asc_node": 116.2699,
        "meta_arg_of_pericenter": 142.6736,
        "meta_mean_anomaly": 217.5495,
        "meta_ephemeris_type": 0,
        "meta_classification_type": "U",
        "meta_norad_cat_id": 40310,
        "meta_element_set_no": 999,
        "meta_rev_at_epoch": 59598,
        "meta_bstar": 0.000177,
        "meta_mean_motion_dot": 1.173e-05,
        "meta_mean_motion_ddot": 0,
        "tle_line1": "1 40310U 14072A   25345.18537443  .00001173  00000+0  17700-3 0  9995",
        "tle_line2": "2 40310  98.1224 116.2699 0014678 142.6736 217.5495 14.76170119595981"
      },
      "geometry": {
        "type": "Point",
        "coordinates": [
          150.834485132333,
          -75.80497060661354
        ]
      }
    },
    {
      "type": "Feature",
      "properties": {
        "norad_id": 40336,
        "name": "CBERS 4",
        "group": "resource",
        "lat": -41.305911890334514,
        "lon": -143.96030790694093,
        "alt_km": 780.2516746464971,
        "timestamp": "2025-12-11T08:58:26.771400+00:00",
        "meta_object_name": "CBERS 4",
        "meta_object_id": "2014-079A",
        "meta_epoch": "2025-12-11T04:35:55.356288",
        "meta_mean_motion": 14.35516596,
        "meta_eccentricity": 0.0001628,
        "meta_inclination": 98.3306,
        "meta_ra_of_asc_node": 43.2611,
        "meta_arg_of_pericenter": 114.6058,
        "meta_mean_anomaly": 245.5298,
        "meta_ephemeris_type": 0,
        "meta_classification_type": "U",
        "meta_norad_cat_id": 40336,
        "meta_element_set_no": 999,
        "meta_rev_at_epoch": 57698,
        "meta_bstar": 6.6555e-05,
        "meta_mean_motion_dot": 1.49e-06,
        "meta_mean_motion_ddot": 0,
        "tle_line1": "1 40336U 14079A   25345.19161292  .00000149  00000+0  66555-4 0  9991",
        "tle_line2": "2 40336  98.3306  43.2611 0001628 114.6058 245.5298 14.35516596576981"
      },
      "geometry": {
        "type": "Point",
        "coordinates": [
          -143.96030790694093,
          -41.305911890334514
        ]
      }
    }
  ]
}